[{"OBJECT_NAME":"HULIANWANG DIGUI-18","OBJECT_ID":"2025-030H","EPOCH":"2026-03-09T20:45:13.227552","MEAN_MOTION":13.29338638,"ECCENTRICITY":8.309e-5,"INCLINATION":50.0052,"RA_OF_ASC_NODE":231.7349,"ARG_OF_PERICENTER":175.6567,"MEAN_ANOMALY":184.4312,"EPHEMERIS_TYPE":0,"CLASSIFICATION_TYPE":"U","NORAD_CAT_ID":62978,"ELEMENT_SET_NO":999,"REV_AT_EPOCH":5265,"BSTAR":9.3484556e-5,"MEAN_MOTION_DOT":-8.1e-7,"MEAN_MOTION_DDOT":0},{"OBJECT_NAME":"DELTA 2 R\/B","OBJECT_ID":"1990-034B","EPOCH":"2026-03-09T11:50:38.100192","MEAN_MOTION":14.22012271,"ECCENTRICITY":0.04686634,"INCLINATION":22.7441,"RA_OF_ASC_NODE":150.4279,"ARG_OF_PERICENTER":275.616,"MEAN_ANOMALY":79.1052,"EPHEMERIS_TYPE":0,"CLASSIFICATION_TYPE":"U","NORAD_CAT_ID":20571,"ELEMENT_SET_NO":999,"REV_AT_EPOCH":84430,"BSTAR":0.00052085196,"MEAN_MOTION_DOT":4.065e-5,"MEAN_MOTION_DDOT":0}]
